[{"OBJECT_NAME":"LEMUR-2-EMERSONROSE","OBJECT_ID":"2025-052BD","EPOCH":"2026-03-09T22:41:34.308672","MEAN_MOTION":14.98235234,"ECCENTRICITY":0.00026118,"INCLINATION":97.701,"RA_OF_ASC_NODE":323.5746,"ARG_OF_PERICENTER":47.547,"MEAN_ANOMALY":312.5973,"EPHEMERIS_TYPE":0,"CLASSIFICATION_TYPE":"U","NORAD_CAT_ID":63261,"ELEMENT_SET_NO":999,"REV_AT_EPOCH":5387,"BSTAR":0.00054278878,"MEAN_MOTION_DOT":6.392e-5,"MEAN_MOTION_DDOT":0},{"OBJECT_NAME":"STARLINK-34335","OBJECT_ID":"2025-126U","EPOCH":"2026-03-09T22:46:15.672864","MEAN_MOTION":14.98322549,"ECCENTRICITY":0.00032243,"INCLINATION":70.0025,"RA_OF_ASC_NODE":33.6858,"ARG_OF_PERICENTER":265.9862,"MEAN_ANOMALY":94.0928,"EPHEMERIS_TYPE":0,"CLASSIFICATION_TYPE":"U","NORAD_CAT_ID":64362,"ELEMENT_SET_NO":999,"REV_AT_EPOCH":4072,"BSTAR":0.0010766821,"MEAN_MOTION_DOT":0.00012775,"MEAN_MOTION_DDOT":0}]
